NORAD_CAT_ID,OBJECT_NAME,OBJECT_TYPE,EPOCH,MEAN_MOTION,ECCENTRICITY,INCLINATION,RA_OF_ASC_NODE,ARG_OF_PERICENTER,MEAN_ANOMALY,BSTAR,MEAN_MOTION_DOT,MEAN_MOTION_DDOT,TLE_LINE0,TLE_LINE1,TLE_LINE2,SEMIMAJOR_AXIS,PERIOD,APOGEE,PERIGEE,DECAYED
52995.0,STARLINK-4296,PAYLOAD,2024-05-03 13:46:55,15.08839346,0.0001638,53.2172,244.8351,96.68,263.4379,1.791e-05,-3e-08,0.0,0 STARLINK-4296,1 52995U 22076K   24124.57425781 -.00000003  00000-0  17910-4 0  9995,2 52995  53.2172 244.8351 0001638  96.6800 263.4379 15.08839346100929,6917.882,95.438,540.881,538.614,0.0
52995.0,STARLINK-4296,PAYLOAD,2024-05-03 16:57:42,15.08843292,0.0001387,53.2156,244.2389,86.6738,273.4413,0.00013729,1.898e-05,0.0,0 STARLINK-4296,1 52995U 22076K   24124.70673697  .00001898  00000-0  13729-3 0  9996,2 52995  53.2156 244.2389 0001387  86.6738 273.4413 15.08843292101416,6917.87,95.437,540.695,538.776,0.0
52995.0,STARLINK-4296,PAYLOAD,2024-05-04 00:54:38,15.08834044,0.0001388,53.2144,242.7506,91.2157,268.8994,0.00013478,1.857e-05,0.0,0 STARLINK-4296,1 52995U 22076K   24125.03794206  .00001857  00000-0  13478-3 0  9999,2 52995  53.2144 242.7506 0001388  91.2157 268.8994 15.08834044101467,6917.899,95.438,540.724,538.803,0.0
52995.0,STARLINK-4296,PAYLOAD,2024-05-04 16:48:30,15.08830037,0.0001372,53.2154,239.7784,90.1751,269.9398,7.7196e-05,9.41e-06,0.0,0 STARLINK-4296,1 52995U 22076K   24125.70034959  .00000941  00000-0  77196-4 0  9996,2 52995  53.2154 239.7784 0001372  90.1751 269.9398 15.08830037101562,6917.911,95.438,540.725,538.827,0.0
52995.0,STARLINK-4296,PAYLOAD,2024-05-05 11:53:07,15.0885062,0.0001375,53.2162,236.2091,86.9556,273.1593,0.00041725,6.361e-05,0.0,0 STARLINK-4296,1 52995U 22076K   24126.49522426  .00006361  00000-0  41725-3 0  9994,2 52995  53.2162 236.2091 0001375  86.9556 273.1593 15.08850620101680,6917.848,95.437,540.664,538.762,0.0
52995.0,STARLINK-4296,PAYLOAD,2024-05-05 13:28:30,15.08855181,0.000137,53.2164,235.912,87.1098,273.0051,0.00045887,7.026e-05,0.0,0 STARLINK-4296,1 52995U 22076K   24126.56146280  .00007026  00000-0  45887-3 0  9994,2 52995  53.2164 235.9120 0001370  87.1098 273.0051 15.08855181101225,6917.834,95.437,540.647,538.751,0.0
52995.0,STARLINK-4296,PAYLOAD,2024-05-05 15:03:53,15.08857118,0.0001389,53.2162,235.6146,86.7267,273.3884,0.00061812,9.568e-05,0.0,0 STARLINK-4296,1 52995U 22076K   24126.62770304  .00009568  00000-0  61812-3 0  9990,2 52995  53.2162 235.6146 0001389  86.7267 273.3884 15.08857118101231,6917.828,95.436,540.654,538.732,0.0
52995.0,STARLINK-4296,PAYLOAD,2024-05-06 13:19:17,15.08855926,0.000134,53.2142,231.4507,97.8282,262.2862,0.00038967,5.922e-05,0.0,0 STARLINK-4296,1 52995U 22076K   24127.55505791  .00005922  00000-0  38967-3 0  9994,2 52995  53.2142 231.4507 0001340  97.8282 262.2862 15.08855926101846,6917.832,95.437,540.624,538.77,0.0
52995.0,STARLINK-4296,PAYLOAD,2024-05-07 00:26:58,15.08853939,0.0001259,53.2162,229.3707,78.6857,281.4277,0.00022776,3.34e-05,0.0,0 STARLINK-4296,1 52995U 22076K   24128.01873613  .00003340  00000-0  22776-3 0  9990,2 52995  53.2162 229.3707 0001259  78.6857 281.4277 15.08853939101913,6917.838,95.437,540.574,538.832,0.0
52995.0,STARLINK-4296,PAYLOAD,2024-05-07 13:10:04,15.08843074,0.0001498,53.2181,226.9919,84.9882,275.1281,-1.5077e-05,-5.28e-06,0.0,0 STARLINK-4296,1 52995U 22076K   24128.54865908 -.00000528  00000-0 -15077-4 0  9990,2 52995  53.2181 226.9919 0001498  84.9882 275.1281 15.08843074101997,6917.871,95.437,540.772,538.7,0.0
52995.0,STARLINK-4296,PAYLOAD,2024-05-08 13:00:51,15.08837603,0.0001306,53.2169,222.5293,87.6667,272.4475,6.3064e-05,7.16e-06,0.0,0 STARLINK-4296,1 52995U 22076K   24129.54226495  .00000716  00000-0  63064-4 0  9999,2 52995  53.2169 222.5293 0001306  87.6667 272.4475 15.08837603102143,6917.888,95.438,540.656,538.849,0.0
52995.0,STARLINK-4296,PAYLOAD,2024-05-09 12:51:38,15.08857755,0.0001302,53.2173,218.0702,77.6647,282.4491,0.00052268,8.044e-05,0.0,0 STARLINK-4296,1 52995U 22076K   24130.53585976  .00008044  00000-0  52268-3 0  9997,2 52995  53.2173 218.0702 0001302  77.6647 282.4491 15.08857755102291,6917.826,95.436,540.592,538.79,0.0
52995.0,STARLINK-4296,PAYLOAD,2024-05-10 12:42:25,15.08849155,0.000118,53.2158,213.6102,98.7269,261.3857,0.00041607,6.342e-05,0.0,0 STARLINK-4296,1 52995U 22076K   24131.52946545  .00006342  00000-0  41607-3 0  9994,2 52995  53.2158 213.6102 0001180  98.7269 261.3857 15.08849155102441,6917.852,95.437,540.534,538.901,0.0
52995.0,STARLINK-4296,PAYLOAD,2024-05-11 12:33:10,15.08982669,0.0001482,53.2149,209.1473,80.5511,279.5649,0.0063687,0.00102956,0.0,0 STARLINK-4296,1 52995U 22076K   24132.52303705  .00102956  00000-0  63687-2 0  9999,2 52995  53.2149 209.1473 0001482  80.5511 279.5649 15.08982669102590,6917.444,95.429,540.335,538.284,0.0
52995.0,STARLINK-4296,PAYLOAD,2024-05-11 22:05:31,15.08782856,0.0003385,53.2146,207.3655,68.6888,291.4465,0.003266,0.00051996,0.0,0 STARLINK-4296,1 52995U 22076K   24132.92050388  .00051996  00000-0  32660-2 0  9993,2 52995  53.2146 207.3655 0003385  68.6888 291.4465 15.08782856102187,6918.055,95.441,542.262,537.578,0.0
52995.0,STARLINK-4296,PAYLOAD,2024-05-12 10:48:40,15.08693957,0.0001405,53.2142,204.9893,76.1011,284.0138,0.00034209,5.139e-05,0.0,0 STARLINK-4296,1 52995U 22076K   24133.45046990  .00005139  00000-0  34209-3 0  9996,2 52995  53.2142 204.9893 0001405  76.1011 284.0138 15.08693957102732,6918.327,95.447,541.164,539.22,0.0
52995.0,STARLINK-4296,PAYLOAD,2024-05-12 13:59:27,15.08737535,0.000117,53.2142,204.3936,94.3878,265.7248,0.0030874,0.00049052,0.0,0 STARLINK-4296,1 52995U 22076K   24133.58295544  .00049052  00000-0  30874-2 0  9996,2 52995  53.2142 204.3936 0001170  94.3878 265.7248 15.08737535102285,6918.194,95.444,540.868,539.249,0.0
52995.0,STARLINK-4296,PAYLOAD,2024-05-12 21:56:23,15.08791864,0.0001532,53.2137,202.9052,78.0029,282.1135,0.0033377,0.00053162,0.0,0 STARLINK-4296,1 52995U 22076K   24133.91416658  .00053162  00000-0  33377-2 0  9992,2 52995  53.2137 202.9052 0001532  78.0029 282.1135 15.08791864102330,6918.028,95.441,540.952,538.833,0.0
52995.0,STARLINK-4296,PAYLOAD,2024-05-13 04:17:56,15.08818455,4.97e-05,53.2148,201.7127,74.1939,285.9108,0.0014671,0.00023124,0.0,0 STARLINK-4296,1 52995U 22076K   24134.17912308  .00023124  00000-0  14671-2 0  9995,2 52995  53.2148 201.7127 0000497  74.1939 285.9108 15.08818455102841,6917.946,95.439,540.155,539.467,0.0
52995.0,STARLINK-4296,PAYLOAD,2024-05-13 10:39:28,15.08860771,0.0001251,53.215,200.526,71.8247,288.2881,0.002098,0.00033279,0.0,0 STARLINK-4296,1 52995U 22076K   24134.44408126  .00033279  00000-0  20980-2 0  9995,2 52995  53.2150 200.5260 0001251  71.8247 288.2881 15.08860771102880,6917.817,95.436,540.547,538.816,0.0
52995.0,STARLINK-4296,PAYLOAD,2024-05-14 10:30:13,15.08887939,0.0001313,53.2147,196.066,65.7126,294.4003,0.001204,0.00018951,0.0,0 STARLINK-4296,1 52995U 22076K   24135.43766001  .00018951  00000-0  12040-2 0  9992,2 52995  53.2147 196.0660 0001313  65.7126 294.4003 15.08887939103034,6917.734,95.435,540.507,538.691,0.0
52995.0,STARLINK-4296,PAYLOAD,2024-05-14 21:37:54,15.08882571,0.0001576,53.215,193.9814,85.7403,274.3769,0.0011552,0.00018166,0.0,0 STARLINK-4296,1 52995U 22076K   24135.90132887  .00018166  00000-0  11552-2 0  9998,2 52995  53.2150 193.9814 0001576  85.7403 274.3769 15.08882571102634,6917.75,95.435,540.706,538.525,0.0
52995.0,STARLINK-4296,PAYLOAD,2024-05-15 10:20:58,15.08878419,0.000157,53.2172,191.6033,86.3197,273.7975,0.00026011,3.858e-05,0.0,0 STARLINK-4296,1 52995U 22076K   24136.43123762  .00003858  00000-0  26011-3 0  9998,2 52995  53.2172 191.6033 0001570  86.3197 273.7975 15.08878419103186,6917.763,95.435,540.714,538.542,0.0
52995.0,STARLINK-4296,PAYLOAD,2024-05-15 13:31:45,15.08878348,0.0001726,53.2186,191.0079,93.2748,266.8442,0.00023691,3.488e-05,0.0,0 STARLINK-4296,1 52995U 22076K   24136.56371546  .00003488  00000-0  23691-3 0  9997,2 52995  53.2186 191.0079 0001726  93.2748 266.8442 15.08878348102730,6917.763,95.435,540.822,538.434,0.0
52995.0,STARLINK-4296,PAYLOAD,2024-05-16 10:11:44,15.08866381,0.0001467,53.2167,187.142,88.3968,271.7192,5.1492e-05,5.32e-06,0.0,0 STARLINK-4296,1 52995U 22076K   24137.42482593  .00000532  00000-0  51492-4 0  9996,2 52995  53.2167 187.1420 0001467  88.3968 271.7192 15.08866381103334,6917.8,95.436,540.68,538.65,0.0
52995.0,STARLINK-4296,PAYLOAD,2024-05-16 13:22:30,15.08867356,0.0001472,53.2172,186.547,86.4181,273.698,8.7136e-05,1.1e-05,0.0,0 STARLINK-4296,1 52995U 22076K   24137.55730274  .00001100  00000-0  87136-4 0  9998,2 52995  53.2172 186.5470 0001472  86.4181 273.6980 15.08867356102888,6917.797,95.436,540.68,538.643,0.0
52995.0,STARLINK-4296,PAYLOAD,2024-05-16 19:44:03,15.08865139,0.0001352,53.216,185.3573,83.5734,276.5412,7.1983e-05,8.59e-06,0.0,0 STARLINK-4296,1 52995U 22076K   24137.82225933  .00000859  00000-0  71983-4 0  9992,2 52995  53.2160 185.3573 0001352  83.5734 276.5412 15.08865139102929,6917.804,95.436,540.604,538.733,0.0
52995.0,STARLINK-4296,PAYLOAD,2024-05-17 10:02:31,15.08851081,0.0001755,53.2174,182.6837,89.3783,270.741,-0.00014649,-2.62e-05,0.0,0 STARLINK-4296,1 52995U 22076K   24138.41842101 -.00002620  00000-0 -14649-3 0  9995,2 52995  53.2174 182.6837 0001755  89.3783 270.7410 15.08851081103489,6917.847,95.437,540.926,538.497,0.0
52995.0,STARLINK-4296,PAYLOAD,2024-05-17 19:34:50,15.08841298,0.0001809,53.2165,180.895,81.1277,278.992,-0.00015224,-2.71e-05,0.0,0 STARLINK-4296,1 52995U 22076K   24138.81586591 -.00002710  00000-0 -15224-3 0  9997,2 52995  53.2165 180.8950 0001809  81.1277 278.9920 15.08841298103545,6917.876,95.437,540.993,538.49,0.0
52995.0,STARLINK-4296,PAYLOAD,2024-05-18 09:53:18,15.08852208,0.0001593,53.2153,178.2194,83.9519,276.1654,0.00014474,2.017e-05,0.0,0 STARLINK-4296,1 52995U 22076K   24139.41202257  .00002017  00000-0  14474-3 0  9992,2 52995  53.2153 178.2194 0001593  83.9519 276.1654 15.08852208103639,6917.843,95.437,540.81,538.606,0.0
